*******************************************************************************
 Revised: Apr 03, 2015           MESSENGER Spacecraft                      -236
                            http://messenger.jhuapl.edu/

 BACKGROUND:
  MESSENGER was launched from Cape Canaveral Air Force Station, Fla., on 
  August 3, 2004. It returned to Earth for a gravity boost 2005-Aug-2, 
  (2,347 kilometers over central Mongolia at 3:13 p.m. EDT), then flew past 
  Venus twice, on October 24, 2006 and June 2007. Mercury orbit insertion  
  occurred March 18, 2011.

  Three Mercury flybys, each followed about two months later by a course 
  correction maneuver, put MESSENGER in position to enter Mercury orbit in 
  March 2011. During the flybys - set for January 14, 2008 (19:05 UTC, 
  200.6 km altitude), October 2008, and September 29, 2009 (21:56 UTC, 228 km
  altitude) - MESSENGER will map nearly the entire planet in color, image 
  most of the areas unseen by Mariner 10, and measure the composition of the 
  surface, atmosphere and magnetosphere. 

  MESSENGER's 12-month orbit covers two Mercury solar days; one Mercury solar 
  day, from sunrise to sunrise, is equal to 176 Earth days. The first solar 
  day is focused on obtaining global map products from the different 
  instruments, and the second focuses on targeted science investigations.

 MESSENGER SPACECRAFT:
  http://messenger.jhuapl.edu/the_mission/spacecraft_design.html

 SPACECRAFT TRAJECTORY:
  A switch from DE405 to DE423 occurs at 2009-Dec-07 23:59:00 UTC

  CAUTION: Osculating elements (only) may not be suitable for high precision 
  applications like reduction of spacecraft measurements because Horizons uses
  mass parameters (GM) from DE431 to determine osculating elements. This issue
  does NOT affect Horizons vector or observer tables over the spacecraft 
  mission interval.

  Trajectory provided by JHU/APL on Apr 02, 2015:
  File/Model                            Start         Stop
  --------------------------------      -----------   -----------
  msgr_20040803_20150501_od423sc_0      2004 AUG 03   2015 May 01 
*******************************************************************************


*******************************************************************************
Ephemeris / WWW_USER Thu Dec 25 14:07:39 2025 Pasadena, USA      / Horizons
*******************************************************************************
Target body name: MESSENGER (spacecraft) (-236)   {source: MESSENGER_MERGED_2}
Center body name: Solar System Barycenter (0)     {source: DE441}
Center-site name: BODY CENTER
*******************************************************************************
Start time      : A.D. 2015-Jan-02 00:00:00.0000 TDB
Stop  time      : A.D. 2015-Apr-29 00:00:00.0000 TDB
Step-size       : 60 minutes
*******************************************************************************
Center geodetic : 0.0, 0.0, 0.0                   {E-lon(deg),Lat(deg),Alt(km)}
Center cylindric: 0.0, 0.0, 0.0                   {E-lon(deg),Dxy(km),Dz(km)}
Center radii    : (undefined)
Output units    : KM-S
Calendar mode   : Mixed Julian/Gregorian
Output type     : GEOMETRIC cartesian states
Output format   : 3 (position, velocity, LT, range, range-rate)
Reference frame : Ecliptic of J2000.0
*******************************************************************************
            JDTDB,            Calendar Date (TDB),                      X,                      Y,                      Z,                     VX,                     VY,                     VZ,                     LT,                     RG,                     RR,
**************************************************************************************************************************************************************************************************************************************************************************
$$SOE
2457099.666666667, A.D. 2015-Mar-18 04:00:00.0000,  2.256182320099410E+07, -6.308599564809283E+07, -7.200266880416792E+06,  3.532724300048615E+01,  1.873130197898658E+01, -3.118999650328075E+00,  2.247717777367677E+02,  6.738488373673527E+07, -5.374769153073463E+00,
2457099.708333333, A.D. 2015-Mar-18 05:00:00.0000,  2.269045754066006E+07, -6.301872914287723E+07, -7.211010771174360E+06,  3.604287760681999E+01,  1.866316295644035E+01, -2.833013095891960E+00,  2.247097243681771E+02,  6.736628060483831E+07, -5.015425170243351E+00,
2457099.750000000, A.D. 2015-Mar-18 06:00:00.0000,  2.282095663635430E+07, -6.295152570706017E+07, -7.220626760336202E+06,  3.642655304220240E+01,  1.867966368032064E+01, -2.506688346637723E+00,  2.246506040796647E+02,  6.734855678822750E+07, -4.848280283928869E+00,
2457099.791666667, A.D. 2015-Mar-18 07:00:00.0000,  2.295258333045613E+07, -6.288419792818886E+07, -7.229031623717003E+06,  3.668549157794808E+01,  1.872847822348437E+01, -2.156607011091927E+00,  2.245930012331586E+02,  6.733128788928565E+07, -4.754228810846659E+00,
2457099.833333333, A.D. 2015-Mar-18 08:00:00.0000,  2.308501527454254E+07, -6.281665715214163E+07, -7.236084277912214E+06,  3.687895024613470E+01,  1.879731521250622E+01, -1.746865798709731E+00,  2.245362434951388E+02,  6.731427234749416E+07, -4.706177399743554E+00,
2457099.875000000, A.D. 2015-Mar-18 09:00:00.0000,  2.321804436768403E+07, -6.274882973968005E+07, -7.241442313107204E+06,  3.701364951576920E+01,  1.889002234840760E+01, -1.193643671591060E+00,  2.244797566626969E+02,  6.729733802115177E+07, -4.714875015739606E+00,
2457099.916666667, A.D. 2015-Mar-18 10:00:00.0000,  2.335131745001528E+07, -6.268056963547179E+07, -7.244207199503209E+06,  3.695930942104747E+01,  1.905692154425471E+01, -2.213710229452541E-01,  2.244223688213920E+02,  6.728013357914765E+07, -4.902583508130982E+00,
2457099.958333333, A.D. 2015-Mar-18 11:00:00.0000,  2.348093590860062E+07, -6.261073016977774E+07, -7.241592390709523E+06,  3.317465656532825E+01,  2.015227977873248E+01,  8.467890725376321E-01,  2.243549858692641E+02,  6.725993267830195E+07, -7.268949711478452E+00,
2457100.000000000, A.D. 2015-Mar-18 12:00:00.0000,  2.360172782316424E+07, -6.253908245837591E+07, -7.249561736500267E+06,  3.468324861417764E+01,  1.961186488825659E+01, -3.058988491860555E+00,  2.242765153837658E+02,  6.723640781857398E+07, -5.737176154801931E+00,
2457100.041666667, A.D. 2015-Mar-18 13:00:00.0000,  2.372849015507007E+07, -6.246876654351532E+07, -7.260226833752584E+06,  3.559781116918803E+01,  1.949042807336962E+01, -2.825228290558782E+00,  2.242111288529509E+02,  6.721680542978086E+07, -5.241976151334324E+00,
2457100.083333333, A.D. 2015-Mar-18 14:00:00.0000,  2.385750447907092E+07, -6.239861579921199E+07, -7.269823823774129E+06,  3.603759131089900E+01,  1.949208014576405E+01, -2.503552148280744E+00,  2.241495649225096E+02,  6.719834902774972E+07, -5.034520131394000E+00,
2457100.125000000, A.D. 2015-Mar-18 15:00:00.0000,  2.398777851117878E+07, -6.232837717300388E+07, -7.278230710659675E+06,  3.632014069208739E+01,  1.953380447999999E+01, -2.162313747035798E+00,  2.240898576850408E+02,  6.718044924826859E+07, -4.920077615069981E+00,
2457100.166666667, A.D. 2015-Mar-18 16:00:00.0000,  2.411892847704641E+07, -6.225794509394625E+07, -7.285344676963374E+06,  3.652913943727335E+01,  1.959771571382075E+01, -1.776342359269743E+00,  2.240312091608744E+02,  6.716286686305064E+07, -4.855786483557879E+00,
2457100.208333333, A.D. 2015-Mar-18 17:00:00.0000,  2.425072349043924E+07, -6.218724943927267E+07, -7.290889966092486E+06,  3.668018348675242E+01,  1.968190750990466E+01, -1.276765786496743E+00,  2.239730432953689E+02,  6.714542917525905E+07, -4.842234975263345E+00,
2457100.250000000, A.D. 2015-Mar-18 18:00:00.0000,  2.438289900755069E+07, -6.211618237137662E+07, -7.294198171884187E+06,  3.671384604310504E+01,  1.981410160756711E+01, -4.796073919288757E-01,  2.239144789651572E+02,  6.712787203075378E+07, -4.947095555468509E+00,
2457100.291666667, A.D. 2015-Mar-18 19:00:00.0000,  2.451389036690464E+07, -6.204421677576738E+07, -7.293060679479320E+06,  3.536142602960214E+01,  2.035844473115417E+01,  1.423049364866682E+00,  2.238511933701885E+02,  6.710889948668210E+07, -6.059643738587946E+00,
2457100.333333333, A.D. 2015-Mar-18 20:00:00.0000,  2.463367401528540E+07, -6.196944732015261E+07, -7.296124325030670E+06,  3.384050003748990E+01,  2.054193017538447E+01, -2.896642489881063E+00,  2.237681543005054E+02,  6.708400499987177E+07, -6.234302046954745E+00,
2457100.375000000, A.D. 2015-Mar-18 21:00:00.0000,  2.475818766288672E+07, -6.189600209192879E+07, -7.306621044543102E+06,  3.509582117461335E+01,  2.032700531675659E+01, -2.818332804681938E+00,  2.236986779066768E+02,  6.706317650099292E+07, -5.497188863366012E+00,
2457100.416666667, A.D. 2015-Mar-18 22:00:00.0000,  2.488556686262488E+07, -6.182288383118878E+07, -7.316212932071827E+06,  3.561671171006034E+01,  2.030777744072871E+01, -2.505243154388552E+00,  2.236344492623766E+02,  6.704392123784417E+07, -5.232605821064666E+00,
2457100.458333333, A.D. 2015-Mar-18 23:00:00.0000,  2.501439006498371E+07, -6.174972630501509E+07, -7.324637226668939E+06,  3.593087169851808E+01,  2.034063454972892E+01, -2.171401982937912E+00,  2.235725315673745E+02,  6.702535877986580E+07, -5.092625398653227E+00,
2457100.500000000, A.D. 2015-Mar-19 00:00:00.0000,  2.514416236229363E+07, -6.167640240131588E+07, -7.331804966857944E+06,  3.615392959075030E+01,  2.039812047309086E+01, -1.801642438130164E+00,  2.235119112719473E+02,  6.700718527249499E+07, -5.011598659488431E+00,
2457100.541666667, A.D. 2015-Mar-19 01:00:00.0000,  2.527463186965119E+07, -6.160283705413917E+07, -7.337507705943335E+06,  3.632015549310884E+01,  2.047507707345648E+01, -1.345353062052744E+00,  2.234519848859370E+02,  6.698921979393391E+07, -4.978006008370256E+00,
